LEMUR-2-VALHALLA        
1 58900U 24022B   26204.13275487  .00016810  00000+0  41338-3 0  9990
2 58900  97.4083  54.5774 0008368 355.7058   4.4115 15.40670183137804
LEMUR-2-CAEL            
1 58903U 24022E   26204.11128747  .00018174  00000+0  42689-3 0  9992
2 58903  97.4063  55.5568 0006274 339.0900  21.0090 15.42056080137872
LEMUR-2-JOHNNYTRUONG    
1 59146U 24043BA  26204.22169131  .00047236  00000+0  51848-3 0  9997
2 59146  97.5397 358.2363 0003612  67.5415 292.6226 15.63082317133661
LEMUR-2-TOMATOKECHUP    
1 60471U 24149D   26204.18932006  .00011667  00000+0  32750-3 0  9991
2 60471  97.3787 286.3428 0003458 108.0349 252.1272 15.36706847107690
LEMUR-2-STELLA          
1 60533U 24149BT  26204.21152092  .00011056  00000+0  63845-3 0  9994
2 60533  97.6726 286.8402 0001481 122.3679 237.7695 15.12495058105948
LEMUR-2-MARHISYAM       
1 60536U 24149BW  26204.20559945  .00009615  00000+0  56527-3 0  9991
2 60536  97.6869 287.3188 0002012  55.8862 304.2559 15.11887017105927
LEMUR-2-AHMED-ASRAR     
1 60576U 24149DN  26204.20398115  .00012218  00000+0  68686-3 0  9997
2 60576  97.6992 289.5523 0001904 180.0962 180.0269 15.13436075106011
LEMUR-2-LLOYD           
1 60577U 24149DP  26204.16800553  .00010964  00000+0  68074-3 0  9994
2 60577  97.6738 285.3299 0004084  50.4202 309.7387 15.09860548105823
LEMUR-2-SQUIRRELCOMM    
1 60578U 24149DQ  26204.16889625  .00006172  00000+0  41061-3 0  9995
2 60578  97.6704 284.9731 0003907 289.7571  70.3235 15.07509146105827
LEMUR-2-SIERRINI        
1 60579U 24149DR  26204.16967716  .00012096  00000+0  71457-3 0  9998
2 60579  97.6834 286.9364 0006033  69.5119 290.6758 15.11635996105893
LEMUR-2-WILSON          
1 62694U 25009CP  26204.16513441  .00002251  00000+0  20949-3 0  9998
2 62694  97.7016 281.9988 0001537 276.7410  83.3636 14.95300842 82732
LEMUR-2-STAR-FOX        
1 62696U 25009CR  26204.18313012  .00008107  00000+0  60794-3 0  9992
2 62696  97.6905 285.5326 0001395   8.2917 351.8330 15.02923009 82962
LEMUR-2-ARIANNA         
1 62699U 25009CU  26204.18158072  .00008151  00000+0  61112-3 0  9992
2 62699  97.6849 285.2770 0001755  20.3119 339.8175 15.02927089 82966
LEMUR-2-ALISIA          
1 62706U 25009DB  26203.95248909  .00008562  00000+0  63601-3 0  9995
2 62706  97.6959 285.8903 0005019 109.3462 250.8306 15.03257350105532
LEMUR-2-ROUNDTRIPPER    
1 62711U 25009DG  26204.15176953  .00007811  00000+0  56467-3 0  9991
2 62711  97.7239 286.7903 0004286  48.3858 311.7734 15.04318028 83039
LEMUR-2-MYNAMEISJEFF    
1 62712U 25009DH  26203.95074971  .00009024  00000+0  65169-3 0  9993
2 62712  97.7284 286.9921 0004279  81.9127 278.2584 15.04309970 83009
